ONEWEB-0340             
1 49206U 21083W   25260.05459122  .00000005  00000+0 -19654-4 0  9992
2 49206  87.9195  29.6859 0001825  96.5581 263.5759 13.18683721193977
ONEWEB-0341             
1 49207U 21083X   25260.28881775 -.00000145  00000+0 -40065-3 0  9996
2 49207  87.9197  29.6521 0002092 111.7479 248.3876 13.18686000194020
ONEWEB-0342             
1 49208U 21083Y   25260.17187904  .00000003  00000+0 -25477-4 0  9991
2 49208  87.9267 328.8665 0001827  99.2595 260.8745 13.20771388200744
ONEWEB-0343             
1 49209U 21083Z   25260.28470293  .00000039  00000+0  64996-4 0  9997
2 49209  87.9196  29.6385 0001762 117.3200 242.8112 13.18687094194077
ONEWEB-0344             
1 49210U 21083AA  25260.02316892  .00000041  00000+0  77939-4 0  9999
2 49210  87.9026  14.5421 0002068 109.5092 250.6260 13.13470907195033
ONEWEB-0345             
1 49211U 21083AB  25260.24325068  .00000252  00000+0  65383-3 0  9992
2 49211  87.9034  14.4522 0002026 110.5794 249.5553 13.13469383195071
ONEWEB-0346             
1 49212U 21083AC  25260.06615054  .00000049  00000+0  91398-4 0  9990
2 49212  87.9198  29.7045 0002225  86.6412 273.4974 13.18687010193988
ONEWEB-0348             
1 49213U 21083AD  25260.16241274  .00000090  00000+0  18859-3 0  9997
2 49213  87.9263 328.8802 0002583 101.8529 258.2895 13.20772365200772
